2024-166B               
1 61180U 24166B   24283.52463111  .00071036  00000+0  36448-3 0  9991
2 61180  96.7645 178.5254 0015175 154.2539 205.9489 15.80888015  3492
QAEM 100 DEB            
1 61181U 24165C   24282.53293904  .00601813  00000+0  29866-1 0  9998
2 61181  64.1196 260.2811 0007184 283.4633  76.5684 15.14996647  3376
GSAT0232 (GALILEO 32)   
1 61182U 24167A   24283.10658358  .00000026  00000+0  00000+0 0  9999
2 61182  55.4066 238.2190 0017029 273.4055  86.3829  1.73176995   369
GSAT0226 (GALILEO 31)   
1 61183U 24167B   24283.27942117  .00000026  00000+0  00000+0 0  9997
2 61183  55.4034 238.2236 0032693  98.1196 262.2349  1.71381600   358
FALCON R/B              
1 61184U 24167C   24283.15952476  .00000026  00000+0  00000+0 0  9994
2 61184  55.4087 238.2245 0009999   5.7093 354.2852  1.72615327   347
2024-168A               
1 61185U 24168A   24283.19631493 -.00000046  00000+0  00000+0 0  9996
2 61185  54.9258 323.5507 0079187 294.4917  64.7470  1.80096497   371
2024-168B               
1 61186U 24168B   24282.32896442 -.00000050  00000+0  00000+0 0  9993
2 61186  54.9750 323.5716 0117615 177.4597 178.0119  1.82969055   341
2024-168C               
1 61187U 24168C   24283.38154035 -.00000044  00000+0  00000+0 0  9999
2 61187  54.9848 323.5281 0066439 180.1259 212.9942  1.84329521   386
2024-168D               
1 61188U 24168D   24283.24973962  .00173003  47061-6  20444-2 0  9990
2 61188  55.0022 312.7448 5794053 176.6361 190.3998  4.46575441   900
2024-169A               
1 61189U 24169A   24283.52111615  .00015843  00000+0  10140-2 0  9996
2 61189  97.5967   8.7192 0009489 209.7836 150.2853 15.08624379  2913
2024-169B               
1 61190U 24169B   24283.51584806  .00015630  00000+0  98790-3 0  9995
2 61190  97.5869   8.7014 0009324 202.7112 157.3705 15.09088338  2911
2024-169C               
1 61191U 24169C   24283.50855585  .00015713  00000+0  97405-3 0  9994
2 61191  97.5940   8.7287 0010096 198.9646 161.1208 15.09793299  2910
2024-169D               
1 61192U 24169D   24283.50332041  .00017311  00000+0  10534-2 0  9995
2 61192  97.5867   8.7180 0012661 205.5590 154.5014 15.10423054  2916
2024-169E               
1 61193U 24169E   24283.56509244  .00016572  00000+0  99620-3 0  9995
2 61193  97.5967   8.8142 0013969 212.4785 147.5587 15.10861909  2925
2024-169F               
1 61194U 24169F   24283.55509077  .00016679  00000+0  97704-3 0  9998
2 61194  97.5940   8.8217 0017169 221.5553 138.4373 15.11753359  2922
2024-170A               
1 61195U 24170A   24283.53565965  .00001511  00000+0  86781-3 0  9999
2 61195  44.8583  12.3165 0006384  12.5672 347.5322 14.13399299  2691
2024-170B               
1 61196U 24170B   24283.53607212  .00001547  00000+0  88915-3 0  9992
2 61196  44.8595  12.3218 0006519   4.7617 355.3280 14.13261302  2699
2024-170C               
1 61197U 24170C   24283.53847305  .00001495  00000+0  86218-3 0  9998
2 61197  44.8632  12.3441 0006475 359.9470   0.1365 14.13216512  2695
2024-170D               
1 61198U 24170D   24283.54015444  .00001496  00000+0  86492-3 0  9996
2 61198  44.8618  12.3514 0006676 359.1531   0.9293 14.13081298  2716
KZ-1A R/B               
1 61199U 24170E   24283.50337467  .00198326  13808-4  17674-2 0  9994
2 61199  44.7460   1.0365 0490571 217.2206 139.3697 14.87850044  2847
STARLINK-11209 [DTC]    
1 61200U 24171A   24283.48494503  .00001161  00000+0  11102-4 0  9997
2 61200  53.1568 202.3927 0000941 100.4950 259.6177 15.76693166  4200
STARLINK-11257 [DTC]    
1 61201U 24171B   24283.48005178  .00009420  00000+0  61481-4 0  9995
2 61201  53.1569 202.3595 0001048 107.9157 252.1979 15.76731536  4216
STARLINK-11309 [DTC]    
1 61202U 24171C   24283.34842069  .00049980  00000+0  30819-3 0  9994
2 61202  53.1564 202.9595 0001012 107.0430 253.0702 15.76683047  3287
STARLINK-11292 [DTC]    
1 61203U 24171D   24283.40690948  .00019590  00000+0  12372-3 0  9997
2 61203  53.1574 202.6107 0000735 123.7121 236.3970 15.76671391  3299
STARLINK-11302 [DTC]    
1 61204U 24171E   24283.27525665  .00035362  00000+0  21949-3 0  9991
2 61204  53.1577 203.2094 0001125  88.2199 271.8951 15.76694187  4178
STARLINK-11277 [DTC]    
1 61205U 24171F   24283.58334491 -.00022589  00000+0 -13404-3 0  9997
2 61205  53.1572 201.5601 0001184  67.7810 297.5780 15.76785675  4242
STARLINK-11279 [DTC]    
1 61206U 24171G   24283.58334491  .00023205  00000+0  14551-3 0  9996
2 61206  53.1582 201.5036 0000975  88.8492 304.3131 15.76709098  4245
STARLINK-11091 [DTC]    
1 61207U 24171H   24283.33374694  .00012025  00000+0  77457-4 0  9992
2 61207  53.1581 202.8619 0000893  83.3044 276.8078 15.76699935  3282
STARLINK-11291 [DTC]    
1 61208U 24171J   24283.58334491 -.00028977  00000+0 -17326-3 0  9994
2 61208  53.1580 201.4459 0000823  95.4561 325.3749 15.76779487  4243
STARLINK-11304 [DTC]    
1 61209U 24171K   24283.58334491  .00108977  00000+0  66228-3 0  9997
2 61209  53.1581 201.3888 0000891  78.0881  10.5061 15.76696226  4246
